NOAA 15                 
1 25338U 98030A   22223.56463934  .00000115  00000+0  66294-4 0  9999
2 25338  98.6416 252.3720 0011287 132.9945 227.2183 14.26159705260878
DMSP 5D-3 F15 (USA 147) 
1 25991U 99067A   22223.57823271  .00000054  00000+0  50338-4 0  9994
2 25991  99.0555 216.1029 0010813  37.3590  71.2049 14.16559915171572
METEOSAT-8 (MSG-1)      
1 27509U 02040B   22223.14424354  .00000119  00000+0  00000+0 0  9996
2 27509   8.1358  50.3512 0001655  99.6010 263.1807  1.00263446 73168
DMSP 5D-3 F16 (USA 172) 
1 28054U 03048A   22223.52795645 -.00000005  00000+0  21409-4 0  9993
2 28054  98.9913 214.6288 0007703 153.7185 315.4779 14.13677498970819
NOAA 18                 
1 28654U 05018A   22223.51909178  .00000113  00000+0  84989-4 0  9996
2 28654  98.9465 293.9048 0014545 171.9469 188.1938 14.12762877887757
METEOSAT-9 (MSG-2)      
1 28912U 05049B   22223.15674531  .00000111  00000+0  00000+0 0  9994
2 28912   6.1387  65.9465 0000581 353.6535   2.1030  1.00275014 60932
EWS-G1 (GOES 13)        
1 29155U 06018A   22223.44146778  .00000021  00000+0  00000+0 0  9990
2 29155   0.7293  96.5923 0005364  94.2902 349.2373  1.00273991 29287
DMSP 5D-3 F17 (USA 191) 
1 29522U 06050A   22223.55000103  .00000024  00000+0  35564-4 0  9998
2 29522  98.7666 237.5710 0011030 103.2562 256.9841 14.14105456813696
FENGYUN 3A              
1 32958U 08026A   22223.47773850  .00000035  00000+0  37172-4 0  9996
2 32958  98.5063 183.8722 0007886 218.5587 141.5027 14.18732293736024
FENGYUN 2E              
1 33463U 08066A   22222.47891125 -.00000219  00000+0  00000+0 0  9997
2 33463   6.0217  64.9992 0002954  18.9293 134.1518  1.00269924 49984
NOAA 19                 
1 33591U 09005A   22223.52662315  .00000123  00000+0  91348-4 0  9990
2 33591  99.1449 258.8112 0014457  37.2535 322.9636 14.12597112695961
GOES 14                 
1 35491U 09033A   22223.56123775 -.00000108  00000+0  00000+0 0  9992
2 35491   0.4440  94.5466 0014410 116.2802 206.6532  1.00271756 48016
METEOR-M 1              
1 35865U 09049A   22223.54761259  .00000041  00000+0  37527-4 0  9991
2 35865  98.5322 192.2518 0003460  73.3329 286.8229 14.22349029669370
DMSP 5D-3 F18 (USA 210) 
1 35951U 09057A   22223.54589105  .00000157  00000+0  10641-3 0  9999
2 35951  98.7259 201.5842 0009974 293.3784  66.6340 14.13537730660913
GOES 15                 
1 36411U 10008A   22223.53298616  .00000038  00000+0  00000+0 0  9994
2 36411   0.4444 276.2837 0004806 239.1372 228.3465  1.00270338 45578
COMS 1                  
1 36744U 10032A   22223.49164934 -.00000362  00000+0  00000+0 0  9991
2 36744   1.2135  92.2429 0001147  52.2916 120.5087  1.00269604 36992
FENGYUN 3B              
1 37214U 10059A   22223.53475672  .00000011  00000+0  29747-4 0  9996
2 37214  99.0930 230.4867 0021820 197.3899 162.6529 14.14261884608743
SUOMI NPP               
1 37849U 11061A   22223.53055255  .00000025  00000+0  32745-4 0  9992
2 37849  98.7333 161.3230 0001254  87.6205 332.3364 14.19537365559010
FENGYUN 2F              
1 38049U 12002A   22223.56018883 -.00000375  00000+0  00000+0 0  9993
2 38049   3.9222  79.2784 0000530  67.0629 127.4673  1.00275100 38792
METEOSAT-10 (MSG-3)     
1 38552U 12035B   22223.32439453  .00000044  00000+0  00000+0 0  9994
2 38552   1.6025  44.2077 0000892  48.0830 353.4614  1.00268693 36768
METOP-B                 
1 38771U 12049A   22223.54320734  .00000054  00000+0  44703-4 0  9991
2 38771  98.6922 282.4708 0000528 122.7645   9.2460 14.21500506513562
FENGYUN 3C              
1 39260U 13052A   22223.53017134  .00000022  00000+0  31884-4 0  9997
2 39260  98.4521 248.8502 0012193 113.6792 246.5671 14.15935576459718
METEOR-M 2              
1 40069U 14037A   22223.46777586 -.00000011  00000+0  14022-4 0  9990
2 40069  98.4312 238.7605 0006036 151.8853 208.2659 14.20714993419674
HIMAWARI-8              
1 40267U 14060A   22223.53591123 -.00000293  00000+0  00000+0 0  9993
2 40267   0.0480 257.2605 0001126 234.9616 161.3155  1.00269629 28660
FENGYUN 2G              
1 40367U 14090A   22223.54771778 -.00000320  00000+0  00000+0 0  9995
2 40367   2.0700  88.9577 0000636 298.6310 229.3351  1.00268488 27909
METEOSAT-11 (MSG-4)     
1 40732U 15034A   22223.32256333 -.00000022  00000+0  00000+0 0  9990
2 40732   0.3993  67.5070 0001272  31.5623 336.6289  1.00266806 25934
ELEKTRO-L 2             
1 41105U 15074A   22223.31091036 -.00000132  00000+0  00000+0 0  9997
2 41105   3.1222  87.5201 0002208  75.6614 254.0438  1.00272657 24414
HIMAWARI-9              
1 41836U 16064A   22223.53452115 -.00000292  00000+0  00000+0 0  9998
2 41836   0.0280  92.9253 0000814  49.6532 150.6014  1.00269113 21098
GOES 16                 
1 41866U 16071A   22223.52286708 -.00000264  00000+0  00000+0 0  9990
2 41866   0.0578 264.8222 0000627 257.4836 270.6795  1.00270910 21013
FENGYUN 4A              
1 41882U 16077A   22223.55870642 -.00000347  00000+0  00000+0 0  9995
2 41882   0.1078  80.5205 0002962  38.9167 146.3414  1.00270171 20884
CYGFM05                 
1 41884U 16078A   22223.34855711  .00001936  00000+0  98333-4 0  9990
2 41884  34.9550 219.8822 0015563 224.2489 135.6979 15.16559758313128
CYGFM04                 
1 41885U 16078B   22223.38125261  .00001957  00000+0  97885-4 0  9999
2 41885  34.9478 208.6021 0014288 241.4336 118.4938 15.17096457313172
CYGFM02                 
1 41886U 16078C   22223.30483521  .00001968  00000+0  98318-4 0  9992
2 41886  34.9570 211.3043 0014959 234.8238 125.1073 15.17134736313249
CYGFM01                 
1 41887U 16078D   22223.35749711  .00001899  00000+0  96982-4 0  9992
2 41887  34.9517 222.3064 0015989 223.6718 136.2729 15.16365941313074
CYGFM08                 
1 41888U 16078E   22223.39092737  .00001855  00000+0  93532-4 0  9996
2 41888  34.9485 214.4910 0015410 235.7668 124.1584 15.16839209313212
CYGFM06                 
1 41889U 16078F   22223.35041606  .00002142  00000+0  10684-3 0  9998
2 41889  34.9567 209.6911 0013789 235.3304 124.6109 15.17149529313196
CYGFM07                 
1 41890U 16078G   22223.33720977  .00002245  00000+0  11210-3 0  9993
2 41890  34.9503 208.6197 0013736 239.6329 120.3024 15.17082169313172
CYGFM03                 
1 41891U 16078H   22223.33607182  .00002784  00000+0  13865-3 0  9992
2 41891  34.9534 209.1156 0013227 237.6199 122.3233 15.17089252313169
FENGYUN 3D              
1 43010U 17072A   22223.48418067  .00000009  00000+0  25383-4 0  9997
2 43010  98.8178 167.8180 0002908  94.6979 265.4523 14.19216686245579
NOAA 20                 
1 43013U 17073A   22223.48295143  .00000010  00000+0  25481-4 0  9990
2 43013  98.7172 161.1814 0000731  82.1649 277.9610 14.19564968245039
GOES 17                 
1 43226U 18022A   22223.17688057  .00000083  00000+0  00000+0 0  9992
2 43226   0.0848 266.6327 0000506 218.0178 121.3189  1.00272049 16321
FENGYUN 2H              
1 43491U 18050A   22223.06715875 -.00000144  00000+0  00000+0 0  9993
2 43491   1.2824  96.1366 0004540  42.7655 284.0185  1.00268322 15337
METOP-C                 
1 43689U 18087A   22223.48399655  .00000053  00000+0  44079-4 0  9999
2 43689  98.6804 282.5643 0001861 220.1792 139.9248 14.21500511195120
GEO-KOMPSAT-2A          
1 43823U 18100A   22223.54841076 -.00000361  00000+0  00000+0 0  9995
2 43823   0.0268 116.7268 0002106   8.1807 160.7628  1.00266701 13526
METEOR-M2 2             
1 44387U 19038A   22223.46111504  .00000002  00000+0  20156-4 0  9999
2 44387  98.7265 183.8093 0002351 102.4217 257.7222 14.23716593161236
FENGYUN 3E              
1 49008U 21062A   22223.55405563 -.00000028  00000+0  75450-5 0  9992
2 49008  98.7125 224.6453 0001899 153.8981 206.2297 14.19735620 57135
GOES 18                 
1 51850U 22021A   22223.52310588  .00000080  00000+0  00000+0 0  9995
2 51850   0.0317  86.9206 0002698 117.1062 167.2537  1.00270798  1686
